{"fetched_at":"2026-03-29T02:12:04Z","count":15717,"tles":[{"name":"GSAT0206 (GALILEO 10)","line1":"1 40890U 15045B   26086.92205734 -.00000016  00000+0  00000+0 0  9996","line2":"2 40890  54.9720 223.8461 0003014  48.8202 311.1530  1.70473776 65656","category":"GPS"}]}